{
  "type": "FeatureCollection",
  "features": [
    {
      "type": "Feature",
      "properties": {
        "norad_id": 30469,
        "name": "FENGYUN 1C DEB",
        "group": "fengyun-1c-debris",
        "lat": 73.34908502884701,
        "lon": -178.79598224999177,
        "alt_km": 827.2593989208672,
        "timestamp": "2025-12-27T13:34:49.571873+00:00",
        "meta_object_name": "FENGYUN 1C DEB",
        "meta_object_id": "1999-025AGG",
        "meta_epoch": "2025-12-26T11:44:06.315072",
        "meta_mean_motion": 13.96546373,
        "meta_eccentricity": 0.0158747,
        "meta_inclination": 98.4785,
        "meta_ra_of_asc_node": 210.127,
        "meta_arg_of_pericenter": 131.2032,
        "meta_mean_anomaly": 294.7432,
        "meta_ephemeris_type": 0,
        "meta_classification_type": "U",
        "meta_norad_cat_id": 30469,
        "meta_element_set_no": 999,
        "meta_rev_at_epoch": 95898,
        "meta_bstar": 0.000621,
        "meta_mean_motion_dot": 9.17e-06,
        "meta_mean_motion_ddot": 0,
        "tle_line1": "1 30469U 99025AGG 25360.48896198  .00000917  00000+0  62100-3 0  9994",
        "tle_line2": "2 30469  98.4785 210.1270 0158747 131.2032 294.7432 13.96546373958989"
      },
      "geometry": {
        "type": "Point",
        "coordinates": [
          -178.79598224999177,
          73.34908502884701
        ]
      }
    },
    {
      "type": "Feature",
      "properties": {
        "norad_id": 30471,
        "name": "FENGYUN 1C DEB",
        "group": "fengyun-1c-debris",
        "lat": 5.279419546564112,
        "lon": 88.50673113902633,
        "alt_km": 902.6886094107958,
        "timestamp": "2025-12-27T13:34:49.571882+00:00",
        "meta_object_name": "FENGYUN 1C DEB",
        "meta_object_id": "1999-025AGJ",
        "meta_epoch": "2025-12-27T05:11:52.975968",
        "meta_mean_motion": 14.13721935,
        "meta_eccentricity": 0.00836586,
        "meta_inclination": 99.0537,
        "meta_ra_of_asc_node": 88.9974,
        "meta_arg_of_pericenter": 213.2484,
        "meta_mean_anomaly": 175.2074,
        "meta_ephemeris_type": 0,
        "meta_classification_type": "U",
        "meta_norad_cat_id": 30471,
        "meta_element_set_no": 999,
        "meta_rev_at_epoch": 96647,
        "meta_bstar": 0.0019033234,
        "meta_mean_motion_dot": 3.675e-05,
        "meta_mean_motion_ddot": 0,
        "tle_line1": "1 30471U 99025AGJ 25361.21658537  .00003675  00000+0  19033-2 0  9992",
        "tle_line2": "2 30471  99.0537  88.9974 0083658 213.2484 175.2074 14.13721935966473"
      },
      "geometry": {
        "type": "Point",
        "coordinates": [
          88.50673113902633,
          5.279419546564112
        ]
      }
    },
    {
      "type": "Feature",
      "properties": {
        "norad_id": 30472,
        "name": "FENGYUN 1C DEB",
        "group": "fengyun-1c-debris",
        "lat": 78.65445951977955,
        "lon": -27.482097281167807,
        "alt_km": 693.4682534298081,
        "timestamp": "2025-12-27T13:34:49.571892+00:00",
        "meta_object_name": "FENGYUN 1C DEB",
        "meta_object_id": "1999-025AGK",
        "meta_epoch": "2025-12-27T05:10:26.384160",
        "meta_mean_motion": 14.54053325,
        "meta_eccentricity": 0.00372219,
        "meta_inclination": 98.6507,
        "meta_ra_of_asc_node": 102.8017,
        "meta_arg_of_pericenter": 34.2861,
        "meta_mean_anomaly": 30.2308,
        "meta_ephemeris_type": 0,
        "meta_classification_type": "U",
        "meta_norad_cat_id": 30472,
        "meta_element_set_no": 999,
        "meta_rev_at_epoch": 98251,
        "meta_bstar": 0.0023870987,
        "meta_mean_motion_dot": 0.0001013,
        "meta_mean_motion_ddot": 0,
        "tle_line1": "1 30472U 99025AGK 25361.21558315  .00010130  00000+0  23871-2 0  9995",
        "tle_line2": "2 30472  98.6507 102.8017 0037221  34.2861  30.2308 14.54053325982514"
      },
      "geometry": {
        "type": "Point",
        "coordinates": [
          -27.482097281167807,
          78.65445951977955
        ]
      }
    },
    {
      "type": "Feature",
      "properties": {
        "norad_id": 30474,
        "name": "FENGYUN 1C DEB",
        "group": "fengyun-1c-debris",
        "lat": -16.00675023340648,
        "lon": -101.56326418643104,
        "alt_km": 778.3395162015731,
        "timestamp": "2025-12-27T13:34:49.571902+00:00",
        "meta_object_name": "FENGYUN 1C DEB",
        "meta_object_id": "1999-025AGM",
        "meta_epoch": "2025-12-27T04:34:11.214048",
        "meta_mean_motion": 14.37945666,
        "meta_eccentricity": 0.00235793,
        "meta_inclination": 98.9275,
        "meta_ra_of_asc_node": 80.6314,
        "meta_arg_of_pericenter": 316.8478,
        "meta_mean_anomaly": 97.0564,
        "meta_ephemeris_type": 0,
        "meta_classification_type": "U",
        "meta_norad_cat_id": 30474,
        "meta_element_set_no": 999,
        "meta_rev_at_epoch": 97601,
        "meta_bstar": 0.0026253606,
        "meta_mean_motion_dot": 7.918e-05,
        "meta_mean_motion_ddot": 0,
        "tle_line1": "1 30474U 99025AGM 25361.19040757  .00007918  00000+0  26254-2 0  9998",
        "tle_line2": "2 30474  98.9275  80.6314 0023579 316.8478  97.0564 14.37945666976010"
      },
      "geometry": {
        "type": "Point",
        "coordinates": [
          -101.56326418643104,
          -16.00675023340648
        ]
      }
    },
    {
      "type": "Feature",
      "properties": {
        "norad_id": 30475,
        "name": "FENGYUN 1C DEB",
        "group": "fengyun-1c-debris",
        "lat": 20.622752939569096,
        "lon": -133.78198858257923,
        "alt_km": 839.0450646390173,
        "timestamp": "2025-12-27T13:34:49.571912+00:00",
        "meta_object_name": "FENGYUN 1C DEB",
        "meta_object_id": "1999-025AGN",
        "meta_epoch": "2025-12-27T01:15:45.860832",
        "meta_mean_motion": 14.15723555,
        "meta_eccentricity": 0.00432542,
        "meta_inclination": 98.787,
        "meta_ra_of_asc_node": 42.3751,
        "meta_arg_of_pericenter": 249.452,
        "meta_mean_anomaly": 175.7534,
        "meta_ephemeris_type": 0,
        "meta_classification_type": "U",
        "meta_norad_cat_id": 30475,
        "meta_element_set_no": 999,
        "meta_rev_at_epoch": 97154,
        "meta_bstar": 0.00082508284,
        "meta_mean_motion_dot": 1.589e-05,
        "meta_mean_motion_ddot": 0,
        "tle_line1": "1 30475U 99025AGN 25361.05261413  .00001589  00000+0  82508-3 0  9991",
        "tle_line2": "2 30475  98.7870  42.3751 0043254 249.4520 175.7534 14.15723555971542"
      },
      "geometry": {
        "type": "Point",
        "coordinates": [
          -133.78198858257923,
          20.622752939569096
        ]
      }
    },
    {
      "type": "Feature",
      "properties": {
        "norad_id": 30476,
        "name": "FENGYUN 1C DEB",
        "group": "fengyun-1c-debris",
        "lat": -17.054415541144017,
        "lon": -143.58576758778443,
        "alt_km": 810.0780305580938,
        "timestamp": "2025-12-27T13:34:49.571922+00:00",
        "meta_object_name": "FENGYUN 1C DEB",
        "meta_object_id": "1999-025AGP",
        "meta_epoch": "2025-12-27T02:49:17.297184",
        "meta_mean_motion": 14.20996016,
        "meta_eccentricity": 0.00454576,
        "meta_inclination": 99.1243,
        "meta_ra_of_asc_node": 38.7774,
        "meta_arg_of_pericenter": 257.9261,
        "meta_mean_anomaly": 167.6939,
        "meta_ephemeris_type": 0,
        "meta_classification_type": "U",
        "meta_norad_cat_id": 30476,
        "meta_element_set_no": 999,
        "meta_rev_at_epoch": 97049,
        "meta_bstar": 0.0016213318,
        "meta_mean_motion_dot": 3.505e-05,
        "meta_mean_motion_ddot": 0,
        "tle_line1": "1 30476U 99025AGP 25361.11756131  .00003505  00000+0  16213-2 0  9994",
        "tle_line2": "2 30476  99.1243  38.7774 0045457 257.9261 167.6939 14.20996016970491"
      },
      "geometry": {
        "type": "Point",
        "coordinates": [
          -143.58576758778443,
          -17.054415541144017
        ]
      }
    },
    {
      "type": "Feature",
      "properties": {
        "norad_id": 30477,
        "name": "FENGYUN 1C DEB",
        "group": "fengyun-1c-debris",
        "lat": 66.58828161535622,
        "lon": 60.67300584039096,
        "alt_km": 1489.568267796949,
        "timestamp": "2025-12-27T13:34:49.571932+00:00",
        "meta_object_name": "FENGYUN 1C DEB",
        "meta_object_id": "1999-025AGQ",
        "meta_epoch": "2025-12-27T04:17:38.261184",
        "meta_mean_motion": 13.23877298,
        "meta_eccentricity": 0.04356228,
        "meta_inclination": 99.4247,
        "meta_ra_of_asc_node": 82.8784,
        "meta_arg_of_pericenter": 242.4451,
        "meta_mean_anomaly": 143.4973,
        "meta_ephemeris_type": 0,
        "meta_classification_type": "U",
        "meta_norad_cat_id": 30477,
        "meta_element_set_no": 999,
        "meta_rev_at_epoch": 90910,
        "meta_bstar": 0.002930496,
        "meta_mean_motion_dot": 2.03e-05,
        "meta_mean_motion_ddot": 0,
        "tle_line1": "1 30477U 99025AGQ 25361.17891506  .00002030  00000+0  29305-2 0  9995",
        "tle_line2": "2 30477  99.4247  82.8784 0435622 242.4451 143.4973 13.23877298909109"
      },
      "geometry": {
        "type": "Point",
        "coordinates": [
          60.67300584039096,
          66.58828161535622
        ]
      }
    }
  ]
}